0 NOAA 11 DEB
1 37241U 88089D   13281.82045571  .00001113  00000-0  53792-3 0  8047
2 37241 098.7562 013.1385 0021813 297.0562 062.8388 14.20469800292634
0 NOAA 11 DEB
1 37241U 88089D   13283.15879071  .00001300  00000-0  62491-3 0  8050
2 37241 098.7565 014.4637 0021935 293.0243 066.8620 14.20477650292824
0 NOAA 11 DEB
1 37241U 88089D   13286.04676137  .00001447  00000-0  69278-3 0  8073
2 37241 098.7568 017.3236 0022155 284.3600 075.5117 14.20486241293239
0 NOAA 11 DEB
1 37241U 88089D   13287.10333112  .00001587  00000-0  75804-3 0  8082
2 37241 098.7568 018.3699 0022262 281.2506 078.6169 14.20488515293386
0 NOAA 11 DEB
1 37241U 88089D   13288.51208677  .00002248  00000-0  10649-2 0  8096
2 37241 098.7567 019.7651 0022405 277.1151 082.7478 14.20496506293587
0 NOAA 11 DEB
1 37241U 88089D   13290.13214796  .00002355  00000-0  11146-2 0  8100
2 37241 098.7570 021.3691 0022381 272.4693 087.3921 14.20501945293810
0 NOAA 11 DEB
1 37241U 88089D   13291.47045368  .00002144  00000-0  10161-2 0  8118
2 37241 098.7568 022.6945 0022449 268.5503 091.3101 14.20508792294008
0 NOAA 11 DEB
1 37241U 88089D   13292.80875316  .00002360  00000-0  11162-2 0  8123
2 37241 098.7563 024.0200 0022552 264.6206 095.2398 14.20513325294194
0 NOAA 11 DEB
1 37241U 88089D   13294.14704751  .00002895  00000-0  13645-2 0  8138
2 37241 098.7560 025.3454 0022704 260.7601 099.1008 14.20518236294389
0 NOAA 11 DEB
1 37241U 88089D   13295.48533776  .00002936  00000-0  13833-2 0  8149
2 37241 098.7558 026.6706 0022803 256.9005 102.9626 14.20525865294571
